ONEWEB-0033             
1 45142U 20008M   26012.58897885  .00000556  00000+0  15556-2 0  9994
2 45142  87.8776  67.3018 0001331 111.3093 248.8176 13.10375032287831
ONEWEB-0035             
1 45143U 20008N   26012.54332027 -.00000232  00000+0 -70118-3 0  9992
2 45143  87.8770  67.3098 0001672 101.8049 258.3266 13.10370217287552
ONEWEB-0036             
1 45144U 20008P   26012.83879521  .00000395  00000+0  10963-2 0  9999
2 45144  87.8780  67.2119 0002075  98.3487 261.7876 13.10371529288026
ONEWEB-0038             
1 45145U 20008Q   26012.52344918 -.00000424  00000+0 -12335-2 0  9993
2 45145  87.8836  52.0523 0001701  38.4601 321.6648 13.11418781289924
ONEWEB-0039             
1 45146U 20008R   26012.66865914  .00000630  00000+0  17679-2 0  9996
2 45146  87.8786  67.2629 0002251  90.1013 270.0372 13.10374860287799
ONEWEB-0040             
1 45147U 20008S   26012.50930294  .00000458  00000+0  12748-2 0  9994
2 45147  87.8778  67.3171 0001801  97.1030 263.0302 13.10376741287470
ONEWEB-0043             
1 45149U 20008U   26012.58731774  .00000493  00000+0  13748-2 0  9996
2 45149  87.8779  67.2829 0002300  90.8044 269.3347 13.10376628287801
ONEWEB-0044             
1 45150U 20008V   26012.69189058 -.00000005  00000+0 -50720-4 0  9996
2 45150  87.8776  67.2548 0002046  97.5075 262.6285 13.10370007288110
